NORAD_CAT_ID,OBJECT_NAME,OBJECT_TYPE,EPOCH,MEAN_MOTION,ECCENTRICITY,INCLINATION,RA_OF_ASC_NODE,ARG_OF_PERICENTER,MEAN_ANOMALY,BSTAR,MEAN_MOTION_DOT,MEAN_MOTION_DDOT,TLE_LINE0,TLE_LINE1,TLE_LINE2,SEMIMAJOR_AXIS,PERIOD,APOGEE,PERIGEE,DECAYED
53596.0,STARLINK-4668,PAYLOAD,2023-07-04 12:16:03,15.08840065,9.43e-05,53.2181,319.7202,83.7047,276.4052,7.1304e-05,8.47e-06,0.0,0 STARLINK-4668,1 53596U 22104J   23185.51115563  .00000847  00000-0  71304-4 0  9991,2 53596  53.2181 319.7202 0000943  83.7047 276.4052 15.08840065 47104,6917.88,95.438,540.398,539.093,0.0
53596.0,STARLINK-4668,PAYLOAD,2023-07-04 18:37:35,15.08847059,8.66e-05,53.2189,318.5297,89.1137,270.9954,6.6713e-05,7.74e-06,0.0,0 STARLINK-4668,1 53596U 22104J   23185.77610986  .00000774  00000-0  66713-4 0  9995,2 53596  53.2189 318.5297 0000866  89.1137 270.9954 15.08847059 47141,6917.859,95.437,540.323,539.125,0.0
53596.0,STARLINK-4668,PAYLOAD,2023-07-05 12:06:51,15.08837411,8.75e-05,53.2185,315.2599,85.326,274.7832,2.9412e-08,-2.87e-06,0.0,0 STARLINK-4668,1 53596U 22104J   23186.50475847 -.00000287  00000-0  29412-7 0  9990,2 53596  53.2185 315.2599 0000875  85.3260 274.7832 15.08837411 47251,6917.888,95.438,540.359,539.148,0.0
53596.0,STARLINK-4668,PAYLOAD,2023-07-06 18:19:10,15.08846937,7.95e-05,53.2189,309.6104,91.6109,268.4974,0.00011826,1.595e-05,0.0,0 STARLINK-4668,1 53596U 22104J   23187.76331073  .00001595  00000-0  11826-3 0  9999,2 53596  53.2189 309.6104 0000795  91.6109 268.4974 15.08846937 47448,6917.859,95.437,540.274,539.174,0.0
53596.0,STARLINK-4668,PAYLOAD,2023-07-07 00:40:43,15.08842066,8.59e-05,53.2184,308.4202,91.2507,268.8584,3.5771e-05,2.82e-06,0.0,0 STARLINK-4668,1 53596U 22104J   23188.02827558  .00000282  00000-0  35771-4 0  9995,2 53596  53.2184 308.4202 0000859  91.2507 268.8584 15.08842066 47482,6917.874,95.437,540.333,539.145,0.0
53596.0,STARLINK-4668,PAYLOAD,2023-07-08 18:00:44,15.08842706,0.0001025,53.2179,300.6898,104.2081,255.9025,8.8421e-05,1.12e-05,0.0,0 STARLINK-4668,1 53596U 22104J   23189.75051479  .00001120  00000-0  88421-4 0  9999,2 53596  53.2179 300.6898 0001025 104.2081 255.9025 15.08842706 47746,6917.872,95.437,540.446,539.028,0.0
53596.0,STARLINK-4668,PAYLOAD,2023-07-09 00:22:17,15.08830424,7.21e-05,53.2174,299.4991,87.2291,272.8784,-8.8874e-05,-1.701e-05,0.0,0 STARLINK-4668,1 53596U 22104J   23190.01548154 -.00001701  00000-0 -88874-4 0  9990,2 53596  53.2174 299.4991 0000721  87.2291 272.8784 15.08830424 47783,6917.91,95.438,540.273,539.276,0.0
53596.0,STARLINK-4668,PAYLOAD,2023-07-10 00:13:04,15.08840511,8.46e-05,53.2185,295.0394,79.2004,280.9083,2.9085e-05,1.75e-06,0.0,0 STARLINK-4668,1 53596U 22104J   23191.00908330  .00000175  00000-0  29085-4 0  9997,2 53596  53.2185 295.0394 0000846  79.2004 280.9083 15.08840511 47932,6917.879,95.438,540.329,539.159,0.0
53596.0,STARLINK-4668,PAYLOAD,2023-07-10 14:31:32,15.08849643,7.91e-05,53.2176,292.3625,70.2302,289.8776,0.00016201,2.292e-05,0.0,0 STARLINK-4668,1 53596U 22104J   23191.60523539  .00002292  00000-0  16201-3 0  9994,2 53596  53.2176 292.3625 0000791  70.2302 289.8776 15.08849643 48023,6917.851,95.437,540.263,539.169,0.0
53596.0,STARLINK-4668,PAYLOAD,2023-07-11 00:03:52,15.08835186,2.92e-05,53.2177,290.5783,70.4203,289.6821,4.5865e-06,-2.14e-06,0.0,0 STARLINK-4668,1 53596U 22104J   23192.00268522 -.00000214  00000-0  45865-5 0  9990,2 53596  53.2177 290.5783 0000292  70.4203 289.6821 15.08835186 48089,6917.895,95.438,539.962,539.558,0.0
53596.0,STARLINK-4668,PAYLOAD,2023-07-11 23:54:38,15.08848926,8.88e-05,53.216,286.1182,66.9661,293.1425,0.00020724,3.013e-05,0.0,0 STARLINK-4668,1 53596U 22104J   23192.99627942  .00003013  00000-0  20724-3 0  9997,2 53596  53.2160 286.1182 0000888  66.9661 293.1425 15.08848926 48237,6917.853,95.437,540.332,539.104,0.0
53596.0,STARLINK-4668,PAYLOAD,2023-07-13 15:39:17,15.0884016,9.18e-05,53.2166,278.683,82.7073,277.4023,9.3586e-05,1.202e-05,0.0,0 STARLINK-4668,1 53596U 22104J   23194.65228266  .00001202  00000-0  93586-4 0  9993,2 53596  53.2166 278.6830 0000918  82.7073 277.4023 15.08840160 48484,6917.88,95.438,540.38,539.11,0.0
53596.0,STARLINK-4668,PAYLOAD,2023-07-14 17:05:27,15.08848513,0.0001159,53.2171,273.9227,95.8862,264.2262,0.00052475,8.075e-05,0.0,0 STARLINK-4668,1 53596U 22104J   23195.71212288  .00008075  00000-0  52475-3 0  9994,2 53596  53.2171 273.9227 0001159  95.8862 264.2262 15.08848513 48644,6917.854,95.437,540.521,538.918,0.0
53596.0,STARLINK-4668,PAYLOAD,2023-07-14 21:51:37,15.08840851,0.0001374,53.2167,273.0313,88.827,271.2879,0.00021407,3.121e-05,0.0,0 STARLINK-4668,1 53596U 22104J   23195.91084559  .00003121  00000-0  21407-3 0  9992,2 53596  53.2167 273.0313 0001374  88.8270 271.2879 15.08840851 48672,6917.878,95.438,540.693,538.792,0.0
53596.0,STARLINK-4668,PAYLOAD,2023-07-16 04:03:56,15.08833568,0.0001021,53.2164,267.3842,92.889,267.2219,-2.6032e-05,-7.02e-06,0.0,0 STARLINK-4668,1 53596U 22104J   23197.16940833 -.00000702  00000-0 -26032-4 0  9991,2 53596  53.2164 267.3842 0001021  92.8890 267.2219 15.08833568 48865,6917.9,95.438,540.471,539.059,0.0
53596.0,STARLINK-4668,PAYLOAD,2023-07-17 11:51:39,15.08846115,0.0001043,53.2167,261.4371,90.3324,269.7788,0.00018275,2.622e-05,0.0,0 STARLINK-4668,1 53596U 22104J   23198.49420676  .00002622  00000-0  18275-3 0  9996,2 53596  53.2167 261.4371 0001043  90.3324 269.7788 15.08846115 49062,6917.862,95.437,540.448,539.005,0.0
53596.0,STARLINK-4668,PAYLOAD,2023-07-17 21:23:58,15.08842301,0.000107,53.2163,259.6527,83.4192,276.6922,0.00013516,1.864e-05,0.0,0 STARLINK-4668,1 53596U 22104J   23198.89164900  .00001864  00000-0  13516-3 0  9995,2 53596  53.2163 259.6527 0001070  83.4192 276.6922 15.08842301 49123,6917.873,95.437,540.479,538.998,0.0
53596.0,STARLINK-4668,PAYLOAD,2023-07-19 09:57:50,15.08837893,0.0001132,53.2157,252.8137,81.6722,278.4398,-1.6899e-05,-5.57e-06,0.0,0 STARLINK-4668,1 53596U 22104J   23200.41517350 -.00000557  00000-0 -16899-4 0  9996,2 53596  53.2157 252.8137 0001132  81.6722 278.4398 15.08837893 49358,6917.887,95.438,540.535,538.969,0.0
53596.0,STARLINK-4668,PAYLOAD,2023-07-20 09:48:37,15.08843284,0.0001138,53.217,248.3529,89.1926,270.9197,7.633e-05,9.27e-06,0.0,0 STARLINK-4668,1 53596U 22104J   23201.40876994  .00000927  00000-0  76330-4 0  9993,2 53596  53.2170 248.3529 0001138  89.1926 270.9197 15.08843284 49505,6917.87,95.437,540.523,538.948,0.0
53596.0,STARLINK-4668,PAYLOAD,2023-07-21 12:50:11,15.08841623,0.0001115,53.2167,243.2968,96.8054,263.3065,0.00010413,1.37e-05,0.0,0 STARLINK-4668,1 53596U 22104J   23202.53484974  .00001370  00000-0  10413-3 0  9993,2 53596  53.2167 243.2968 0001115  96.8054 263.3065 15.08841623 49677,6917.875,95.437,540.512,538.969,0.0
53596.0,STARLINK-4668,PAYLOAD,2023-07-24 02:50:14,15.08836339,0.0001135,53.2168,231.7002,94.3114,265.8008,4.3206e-05,4e-06,0.0,0 STARLINK-4668,1 53596U 22104J   23205.11821765  .00000400  00000-0  43206-4 0  9993,2 53596  53.2168 231.7002 0001135  94.3114 265.8008 15.08836339 50754,6917.892,95.438,540.542,538.971,0.0
53596.0,STARLINK-4668,PAYLOAD,2023-07-25 09:02:33,15.08840052,0.0001105,53.2155,226.0491,96.0173,264.0945,7.9568e-05,9.79e-06,0.0,0 STARLINK-4668,1 53596U 22104J   23206.37677679  .00000979  00000-0  79568-4 0  9996,2 53596  53.2155 226.0491 0001105  96.0173 264.0945 15.08840052 50949,6917.88,95.438,540.51,538.981,0.0
53596.0,STARLINK-4668,PAYLOAD,2023-07-26 00:56:25,15.08822848,0.0001216,53.2154,223.076,88.8246,271.2885,0.00028462,4.243e-05,0.0,0 STARLINK-4668,1 53596U 22104J   23207.03918104  .00004243  00000-0  28462-3 0  9995,2 53596  53.2154 223.0760 0001216  88.8246 271.2885 15.08822848 51045,6917.933,95.439,540.639,538.957,0.0
53596.0,STARLINK-4668,PAYLOAD,2023-07-26 05:42:34,15.08838102,0.0001139,53.2154,222.1832,90.232,269.8803,7.0709e-05,8.38e-06,0.0,0 STARLINK-4668,1 53596U 22104J   23207.23790042  .00000838  00000-0  70709-4 0  9994,2 53596  53.2154 222.1832 0001139  90.2320 269.8803 15.08838102 50388,6917.886,95.438,540.539,538.963,0.0
53596.0,STARLINK-4668,PAYLOAD,2023-07-26 07:17:57,15.08838154,0.0001139,53.2154,221.8858,89.9666,270.1456,7.3785e-05,8.87e-06,0.0,0 STARLINK-4668,1 53596U 22104J   23207.30414037  .00000887  00000-0  73785-4 0  9990,2 53596  53.2154 221.8858 0001139  89.9666 270.1456 15.08838154 51084,6917.886,95.438,540.539,538.963,0.0
53596.0,STARLINK-4668,PAYLOAD,2023-07-27 00:47:10,15.08855584,0.0001065,53.2155,218.6134,96.5273,263.584,0.00015515,2.183e-05,0.0,0 STARLINK-4668,1 53596U 22104J   23208.03276426  .00002183  00000-0  15515-3 0  9996,2 53596  53.2155 218.6134 0001065  96.5273 263.5840 15.08855584 50507,6917.833,95.437,540.435,538.961,0.0
53596.0,STARLINK-4668,PAYLOAD,2023-07-28 00:37:58,15.08846446,0.0001929,53.2157,214.1499,125.9007,234.2164,5.8944e-05,6.5e-06,0.0,0 STARLINK-4668,1 53596U 22104J   23209.02636676  .00000650  00000-0  58944-4 0  9994,2 53596  53.2157 214.1499 0001929 125.9007 234.2164 15.08846446 50652,6917.861,95.437,541.06,538.391,0.0
53596.0,STARLINK-4668,PAYLOAD,2023-07-28 10:10:17,15.08834406,0.0001592,53.2172,212.368,124.6854,235.4288,-3.7849e-05,-8.9e-06,0.0,0 STARLINK-4668,1 53596U 22104J   23209.42381652 -.00000890  00000-0 -37849-4 0  9998,2 53596  53.2172 212.3680 0001592 124.6854 235.4288 15.08834406 50713,6917.897,95.438,540.864,538.661,0.0
53596.0,STARLINK-4668,PAYLOAD,2023-07-29 10:01:03,15.08894492,0.00016,53.216,207.91,112.2749,247.8413,-0.00090336,-0.00014658,0.0,0 STARLINK-4668,1 53596U 22104J   23210.41740172 -.00014658  00000-0 -90336-3 0  9991,2 53596  53.2160 207.9100 0001600 112.2749 247.8413 15.08894492 50867,6917.714,95.434,540.686,538.472,0.0
53596.0,STARLINK-4668,PAYLOAD,2023-07-30 00:19:33,15.0883002,0.00012,53.2161,205.2338,90.3928,269.7201,0.00010318,1.354e-05,0.0,0 STARLINK-4668,1 53596U 22104J   23211.01358015  .00001354  00000-0  10318-3 0  9998,2 53596  53.2161 205.2338 0001200  90.3928 269.7201 15.08830020 50958,6917.911,95.438,540.606,538.946,0.0
